ALOS (DAICHI)           
1 28931U 06002A   26115.88212391  .00001165  00000+0  20287-3 0  9994
2 28931  98.1287  71.6294 0001919 104.0688 256.0731 14.69939226 80414
H-2A R/B                
1 28932U 06002B   26115.90493019  .00010196  00000+0  49616-3 0  9997
2 28932  98.2499 267.0529 0052416  81.4397 279.2769 15.17384626101599
RESURS-DK 1             
1 29228U 06021A   26115.74363345  .00002097  00000+0  12463-3 0  9998
2 29228  69.9299 115.2839 0003265 341.1886  18.9158 15.12985142 94648
CZ-4B R/B               
1 29507U 06046C   26115.70142721  .00004226  00000+0  21202-3 0  9991
2 29507  97.5508 160.4747 0034621 104.2276 256.2807 15.17347593 67172
CZ-2C R/B               
1 31114U 07010B   26115.92753772  .00000113  00000+0  70778-4 0  9992
2 31114  98.4036 226.8509 0059570 155.8920 204.5067 14.20262400986424
COSMO-SKYMED 1          
1 31598U 07023A   26115.93074271  .00003127  00000+0  27805-3 0  9993
2 31598  97.8869 307.3521 0001360 101.5650 258.5724 14.96839578 21976
COSMOS 2428             
1 31792U 07029A   26115.68417241 -.00000187  00000+0 -74667-4 0  9999
2 31792  70.9391 104.7032 0009088 225.1097 134.9288 14.12945333970737
SL-16 R/B               
1 31793U 07029B   26115.67213506  .00000318  00000+0  18961-3 0  9995
2 31793  70.9747  73.6206 0002508 268.1018 265.1568 14.14844621972011
KORONAS-FOTON           
1 33504U 09003A   26115.81655260  .00015226  00000+0  32633-3 0  9990
2 33504  82.4313 226.8357 0009742 351.5029   8.6052 15.44564963953014
CZ-2C R/B               
1 37731U 11030B   26115.89775616  .00000972  00000+0  12846-3 0  9991
2 37731  97.8615  72.2464 0051925 195.1876 232.3027 14.81355879797084
H-2A R/B                
1 38341U 12025E   26115.90433904  .00001968  00000+0  18073-3 0  9991
2 38341  98.4795  86.7661 0044605 156.6943 203.6311 14.95440522755278
SHIJIAN-16 (SJ-16)      
1 39358U 13057A   26115.95594676  .00001082  00000+0  10810-3 0  9993
2 39358  74.9707  95.5967 0016208 352.0520   8.0409 14.92474052678559
SL-4 R/B                
1 39679U 14021B   26115.67565067  .00012033  00000+0  25812-3 0  9998
2 39679  51.6053 107.7779 0092737 274.8839  84.1562 15.40675203663513
ALOS-2                  
1 39766U 14029A   26115.18266031  .00000370  00000+0  56479-4 0  9993
2 39766  97.9197 213.1044 0001828  85.9380 274.2041 14.79472741643742
YAOGAN-29               
1 41038U 15069A   26115.95671810  .00000044  00000+0  12105-4 0  9999
2 41038  98.0079 144.4984 0001727 140.6726 219.4614 14.83038885562882
ASTRO-H (HITOMI)        
1 41337U 16012A   26115.49636556  .00002861  00000+0  16478-3 0  9992
2 41337  30.9996  54.4204 0009373  82.6607 277.5096 15.10271737559319
