[{"OBJECT_NAME":"ALOS (DAICHI)","OBJECT_ID":"2006-002A","EPOCH":"2026-04-25T21:10:15.505824","MEAN_MOTION":14.69939226,"ECCENTRICITY":0.00019198,"INCLINATION":98.1287,"RA_OF_ASC_NODE":71.6294,"ARG_OF_PERICENTER":104.0688,"MEAN_ANOMALY":256.0731,"EPHEMERIS_TYPE":0,"CLASSIFICATION_TYPE":"U","NORAD_CAT_ID":28931,"ELEMENT_SET_NO":999,"REV_AT_EPOCH":8041,"BSTAR":0.00020286766,"MEAN_MOTION_DOT":1.165e-5,"MEAN_MOTION_DDOT":0},{"OBJECT_NAME":"H-2A R/B","OBJECT_ID":"2006-002B","EPOCH":"2026-04-25T21:43:05.968416","MEAN_MOTION":15.17384626,"ECCENTRICITY":0.00524168,"INCLINATION":98.2499,"RA_OF_ASC_NODE":267.0529,"ARG_OF_PERICENTER":81.4397,"MEAN_ANOMALY":279.2769,"EPHEMERIS_TYPE":0,"CLASSIFICATION_TYPE":"U","NORAD_CAT_ID":28932,"ELEMENT_SET_NO":999,"REV_AT_EPOCH":10159,"BSTAR":0.00049616163,"MEAN_MOTION_DOT":0.00010196,"MEAN_MOTION_DDOT":0},{"OBJECT_NAME":"RESURS-DK 1","OBJECT_ID":"2006-021A","EPOCH":"2026-04-25T17:50:49.930080","MEAN_MOTION":15.12985142,"ECCENTRICITY":0.00032657,"INCLINATION":69.9299,"RA_OF_ASC_NODE":115.2839,"ARG_OF_PERICENTER":341.1886,"MEAN_ANOMALY":18.9158,"EPHEMERIS_TYPE":0,"CLASSIFICATION_TYPE":"U","NORAD_CAT_ID":29228,"ELEMENT_SET_NO":999,"REV_AT_EPOCH":9464,"BSTAR":0.00012463399,"MEAN_MOTION_DOT":2.097e-5,"MEAN_MOTION_DDOT":0},{"OBJECT_NAME":"CZ-4B R/B","OBJECT_ID":"2006-046C","EPOCH":"2026-04-25T16:50:03.310944","MEAN_MOTION":15.17347593,"ECCENTRICITY":0.00346211,"INCLINATION":97.5508,"RA_OF_ASC_NODE":160.4747,"ARG_OF_PERICENTER":104.2276,"MEAN_ANOMALY":256.2807,"EPHEMERIS_TYPE":0,"CLASSIFICATION_TYPE":"U","NORAD_CAT_ID":29507,"ELEMENT_SET_NO":999,"REV_AT_EPOCH":6717,"BSTAR":0.00021201979,"MEAN_MOTION_DOT":4.226e-5,"MEAN_MOTION_DDOT":0},{"OBJECT_NAME":"CZ-2C R/B","OBJECT_ID":"2007-010B","EPOCH":"2026-04-25T22:15:39.259008","MEAN_MOTION":14.202624,"ECCENTRICITY":0.00595703,"INCLINATION":98.4036,"RA_OF_ASC_NODE":226.8509,"ARG_OF_PERICENTER":155.892,"MEAN_ANOMALY":204.5067,"EPHEMERIS_TYPE":0,"CLASSIFICATION_TYPE":"U","NORAD_CAT_ID":31114,"ELEMENT_SET_NO":999,"REV_AT_EPOCH":98642,"BSTAR":7.0778018e-5,"MEAN_MOTION_DOT":1.13e-6,"MEAN_MOTION_DDOT":0},{"OBJECT_NAME":"COSMO-SKYMED 1","OBJECT_ID":"2007-023A","EPOCH":"2026-04-25T22:20:16.170144","MEAN_MOTION":14.96839578,"ECCENTRICITY":0.000136,"INCLINATION":97.8869,"RA_OF_ASC_NODE":307.3521,"ARG_OF_PERICENTER":101.565,"MEAN_ANOMALY":258.5724,"EPHEMERIS_TYPE":0,"CLASSIFICATION_TYPE":"U","NORAD_CAT_ID":31598,"ELEMENT_SET_NO":999,"REV_AT_EPOCH":2197,"BSTAR":0.00027804807,"MEAN_MOTION_DOT":3.127e-5,"MEAN_MOTION_DDOT":0},{"OBJECT_NAME":"COSMOS 2428","OBJECT_ID":"2007-029A","EPOCH":"2026-04-25T16:25:12.496224","MEAN_MOTION":14.12945333,"ECCENTRICITY":0.00090886,"INCLINATION":70.9391,"RA_OF_ASC_NODE":104.7032,"ARG_OF_PERICENTER":225.1097,"MEAN_ANOMALY":134.9288,"EPHEMERIS_TYPE":0,"CLASSIFICATION_TYPE":"U","NORAD_CAT_ID":31792,"ELEMENT_SET_NO":999,"REV_AT_EPOCH":97073,"BSTAR":-7.46666e-5,"MEAN_MOTION_DOT":-1.87e-6,"MEAN_MOTION_DDOT":0},{"OBJECT_NAME":"SL-16 R/B","OBJECT_ID":"2007-029B","EPOCH":"2026-04-25T16:07:52.469184","MEAN_MOTION":14.14844621,"ECCENTRICITY":0.00025084,"INCLINATION":70.9747,"RA_OF_ASC_NODE":73.6206,"ARG_OF_PERICENTER":268.1018,"MEAN_ANOMALY":265.1568,"EPHEMERIS_TYPE":0,"CLASSIFICATION_TYPE":"U","NORAD_CAT_ID":31793,"ELEMENT_SET_NO":999,"REV_AT_EPOCH":97201,"BSTAR":0.0001896124,"MEAN_MOTION_DOT":3.18e-6,"MEAN_MOTION_DDOT":0},{"OBJECT_NAME":"KORONAS-FOTON","OBJECT_ID":"2009-003A","EPOCH":"2026-04-25T19:35:50.144640","MEAN_MOTION":15.44564963,"ECCENTRICITY":0.00097424,"INCLINATION":82.4313,"RA_OF_ASC_NODE":226.8357,"ARG_OF_PERICENTER":351.5029,"MEAN_ANOMALY":8.6052,"EPHEMERIS_TYPE":0,"CLASSIFICATION_TYPE":"U","NORAD_CAT_ID":33504,"ELEMENT_SET_NO":999,"REV_AT_EPOCH":95301,"BSTAR":0.00032632504,"MEAN_MOTION_DOT":0.00015226,"MEAN_MOTION_DDOT":0},{"OBJECT_NAME":"CZ-2C R/B","OBJECT_ID":"2011-030B","EPOCH":"2026-04-25T21:32:46.132224","MEAN_MOTION":14.81355879,"ECCENTRICITY":0.00519252,"INCLINATION":97.8615,"RA_OF_ASC_NODE":72.2464,"ARG_OF_PERICENTER":195.1876,"MEAN_ANOMALY":232.3027,"EPHEMERIS_TYPE":0,"CLASSIFICATION_TYPE":"U","NORAD_CAT_ID":37731,"ELEMENT_SET_NO":999,"REV_AT_EPOCH":79708,"BSTAR":0.00012846265,"MEAN_MOTION_DOT":9.72e-6,"MEAN_MOTION_DDOT":0},{"OBJECT_NAME":"H-2A R/B","OBJECT_ID":"2012-025E","EPOCH":"2026-04-25T21:42:14.893056","MEAN_MOTION":14.95440522,"ECCENTRICITY":0.00446052,"INCLINATION":98.4795,"RA_OF_ASC_NODE":86.7661,"ARG_OF_PERICENTER":156.6943,"MEAN_ANOMALY":203.6311,"EPHEMERIS_TYPE":0,"CLASSIFICATION_TYPE":"U","NORAD_CAT_ID":38341,"ELEMENT_SET_NO":999,"REV_AT_EPOCH":75527,"BSTAR":0.00018072918,"MEAN_MOTION_DOT":1.968e-5,"MEAN_MOTION_DDOT":0},{"OBJECT_NAME":"SHIJIAN-16 (SJ-16)","OBJECT_ID":"2013-057A","EPOCH":"2026-04-25T22:56:33.800064","MEAN_MOTION":14.92474052,"ECCENTRICITY":0.00162085,"INCLINATION":74.9707,"RA_OF_ASC_NODE":95.5967,"ARG_OF_PERICENTER":352.052,"MEAN_ANOMALY":8.0409,"EPHEMERIS_TYPE":0,"CLASSIFICATION_TYPE":"U","NORAD_CAT_ID":39358,"ELEMENT_SET_NO":999,"REV_AT_EPOCH":67855,"BSTAR":0.00010810281,"MEAN_MOTION_DOT":1.082e-5,"MEAN_MOTION_DDOT":0},{"OBJECT_NAME":"SL-4 R/B","OBJECT_ID":"2014-021B","EPOCH":"2026-04-25T16:12:56.217888","MEAN_MOTION":15.40675203,"ECCENTRICITY":0.0092737,"INCLINATION":51.6053,"RA_OF_ASC_NODE":107.7779,"ARG_OF_PERICENTER":274.8839,"MEAN_ANOMALY":84.1562,"EPHEMERIS_TYPE":0,"CLASSIFICATION_TYPE":"U","NORAD_CAT_ID":39679,"ELEMENT_SET_NO":999,"REV_AT_EPOCH":66351,"BSTAR":0.00025811866,"MEAN_MOTION_DOT":0.00012033,"MEAN_MOTION_DDOT":0},{"OBJECT_NAME":"ALOS-2","OBJECT_ID":"2014-029A","EPOCH":"2026-04-25T04:23:01.850784","MEAN_MOTION":14.79472741,"ECCENTRICITY":0.00018283,"INCLINATION":97.9197,"RA_OF_ASC_NODE":213.1044,"ARG_OF_PERICENTER":85.938,"MEAN_ANOMALY":274.2041,"EPHEMERIS_TYPE":0,"CLASSIFICATION_TYPE":"U","NORAD_CAT_ID":39766,"ELEMENT_SET_NO":999,"REV_AT_EPOCH":64374,"BSTAR":5.6478626e-5,"MEAN_MOTION_DOT":3.7e-6,"MEAN_MOTION_DDOT":0},{"OBJECT_NAME":"YAOGAN-29","OBJECT_ID":"2015-069A","EPOCH":"2026-04-25T22:57:40.443840","MEAN_MOTION":14.83038885,"ECCENTRICITY":0.00017277,"INCLINATION":98.0079,"RA_OF_ASC_NODE":144.4984,"ARG_OF_PERICENTER":140.6726,"MEAN_ANOMALY":219.4614,"EPHEMERIS_TYPE":0,"CLASSIFICATION_TYPE":"U","NORAD_CAT_ID":41038,"ELEMENT_SET_NO":999,"REV_AT_EPOCH":56288,"BSTAR":1.2105461e-5,"MEAN_MOTION_DOT":4.4e-7,"MEAN_MOTION_DDOT":0},{"OBJECT_NAME":"ASTRO-H (HITOMI)","OBJECT_ID":"2016-012A","EPOCH":"2026-04-25T11:54:45.984384","MEAN_MOTION":15.10271737,"ECCENTRICITY":0.00093737,"INCLINATION":30.9996,"RA_OF_ASC_NODE":54.4204,"ARG_OF_PERICENTER":82.6607,"MEAN_ANOMALY":277.5096,"EPHEMERIS_TYPE":0,"CLASSIFICATION_TYPE":"U","NORAD_CAT_ID":41337,"ELEMENT_SET_NO":999,"REV_AT_EPOCH":55931,"BSTAR":0.00016478029,"MEAN_MOTION_DOT":2.861e-5,"MEAN_MOTION_DDOT":0}]
